IRIDIUM 171             
1 43929U 19002H   24161.63831895  .00000236  00000+0  77031-4 0  9998
2 43929  86.3961 302.0244 0002361  94.8662 265.2803 14.34216944283247
IRIDIUM 170             
1 43930U 19002J   24161.64758248  .00002674  00000+0  42016-3 0  9993
2 43930  86.6083 301.8410 0002415  87.8419 272.3075 14.72248533290745
IRIDIUM 167             
1 43931U 19002K   24161.63197879  .00000070  00000+0  18051-4 0  9991
2 43931  86.3952 301.8182 0002179  94.6174 265.5271 14.34217318283249
IRIDIUM 181             
1 56726U 23068S   24161.82884690  .00000764  00000+0  21973-3 0  9995
2 56726  86.8637 355.1123 0002247  94.2703 265.8756 14.43595108 56073
IRIDIUM 177             
1 56727U 23068T   24161.51863646  .00003019  00000+0  39381-3 0  9998
2 56727  86.1964 319.0023 0002599  94.3800 265.7718 14.80227695 57248
IRIDIUM 174             
1 56728U 23068U   24161.85121502  .00003050  00000+0  39791-3 0  9994
2 56728  86.1972 318.9476 0002159  92.5955 267.5513 14.80229489 57292
IRIDIUM 178             
1 56729U 23068V   24161.77831983  .00002937  00000+0  38299-3 0  9992
2 56729  86.5775 336.0969 0001954  85.4199 274.7246 14.80237623 57280
IRIDIUM 179             
1 56730U 23068W   24161.56986813  .00000898  00000+0  11482-3 0  9993
2 56730  86.6782 340.2246 0001896  91.4405 268.7034 14.80221055 57255
